OBJECT_NAME,OBJECT_ID,EPOCH,MEAN_MOTION,ECCENTRICITY,INCLINATION,RA_OF_ASC_NODE,ARG_OF_PERICENTER,MEAN_ANOMALY,EPHEMERIS_TYPE,CLASSIFICATION_TYPE,NORAD_CAT_ID,ELEMENT_SET_NO,REV_AT_EPOCH,BSTAR,MEAN_MOTION_DOT,MEAN_MOTION_DDOT
ONEWEB-0340,2021-083W,2026-07-11T20:51:44.177184,13.18687466,.0001907,87.9195,330.5474,92.1726,267.9624,0,U,49206,999,23322,.15587E-3,.74E-6,0
ONEWEB-0341,2021-083X,2026-07-11T19:12:10.780128,13.18687393,.0002238,87.9172,330.5622,91.0803,269.0586,0,U,49207,999,23323,.32124E-5,.14E-6,0
ONEWEB-0342,2021-083Y,2026-07-11T17:52:08.885856,13.20740680,.0001857,87.9154,269.5484,118.7670,241.3650,0,U,49208,999,24002,.15595E-1,.6355E-4,0
ONEWEB-0343,2021-083Z,2026-07-11T19:24:19.552032,13.18687405,.0002143,87.9182,330.5600,106.9984,253.1383,0,U,49209,999,23328,-.55516E-4,-.9E-7,0
ONEWEB-0344,2021-083AA,2026-07-11T19:13:59.337408,13.13474307,.0002292,87.8974,315.3395,93.6448,266.4943,0,U,49210,999,23412,.18083E-2,.673E-5,0
ONEWEB-0345,2021-083AB,2026-07-11T20:51:30.792096,13.13469803,.0002152,87.8993,315.3096,100.0503,260.0869,0,U,49211,999,23414,.99143E-3,.375E-5,0
ONEWEB-0346,2021-083AC,2026-07-11T19:19:28.111008,13.18687030,.0001668,87.9185,330.5598,76.0181,284.1137,0,U,49212,999,23322,.13014E-5,.13E-6,0
ONEWEB-0348,2021-083AD,2026-07-11T15:48:31.928832,13.20772122,.0002235,87.9192,269.5654,84.0523,276.0865,0,U,49213,999,24004,-.31785E-4,0,0
ONEWEB-0350,2021-083AE,2026-07-11T19:28:49.730880,13.13455210,.0001586,87.8980,315.3278,124.9032,235.2247,0,U,49214,999,23416,.64851E-2,.2381E-4,0
ONEWEB-0351,2021-083AF,2026-07-11T17:27:42.797952,13.20770066,.0002675,87.9190,269.5501,104.9866,255.1564,0,U,49215,999,24001,-.10006E-3,-.28E-6,0
ONEWEB-0352,2021-083AG,2026-07-11T20:36:53.140032,13.13469607,.0002213,87.8977,315.3224,107.5289,252.6082,0,U,49216,999,23426,.57475E-3,.223E-5,0
ONEWEB-0354,2021-083AH,2026-07-11T18:06:42.165216,13.20771420,.0002116,87.9196,269.5421,96.9894,263.1480,0,U,49217,999,24005,-.16924E-3,-.56E-6,0
ONEWEB-0355,2021-083AJ,2026-07-09T07:09:49.844448,13.13300713,.00020436,87.8970,315.8320,101.5704,258.5654,0,U,49218,999,23380,.92726532E-3,.351E-5,0
ONEWEB-0357,2021-083AK,2026-07-11T18:01:50.288736,13.20769515,.0002265,87.9189,269.5381,101.2633,258.8755,0,U,49219,999,24005,-.42063E-3,-.158E-5,0
ONEWEB-0332,2021-090A,2026-07-11T19:18:44.163648,13.14507397,.0001904,87.8974,284.8018,128.1345,231.9956,0,U,49279,999,23081,-.88923E-4,-.2E-6,0
ONEWEB-0347,2021-090B,2026-07-11T17:47:17.824128,13.20769369,.0001993,87.9186,269.5481,104.3801,255.7554,0,U,49280,999,23428,-.14259E-3,-.45E-6,0
ONEWEB-0349,2021-090C,2026-07-11T16:44:15.609696,13.20770532,.0002167,87.9189,269.5580,98.7023,261.4356,0,U,49281,999,23306,-.53974E-3,-.206E-5,0
ONEWEB-0353,2021-090D,2026-07-11T19:07:19.653600,13.14501671,.0001957,87.8973,284.8020,106.0140,254.1205,0,U,49282,999,23081,.57847E-4,.34E-6,0
ONEWEB-0356,2021-090E,2026-07-11T18:30:56.436192,13.20770096,.0001359,87.9189,269.5361,86.5908,273.5381,0,U,49283,999,23307,.95469E-4,.52E-6,0
ONEWEB-0358,2021-090F,2026-07-11T17:33:53.853984,13.20730588,.0001695,87.9190,269.5514,96.0794,264.0532,0,U,49284,999,23379,-.15925E-4,.7E-7,0
ONEWEB-0359,2021-090G,2026-07-11T17:20:37.677120,13.20769385,.0002197,87.9189,269.5456,91.7697,268.3688,0,U,49285,999,23377,-.14001E-3,-.44E-6,0
ONEWEB-0360,2021-090H,2026-07-11T17:06:06.803136,13.20771298,.0002219,87.9189,269.5541,97.4357,262.7028,0,U,49286,999,23308,.24239E-3,.112E-5,0
ONEWEB-0361,2021-090J,2026-07-11T18:28:31.031904,13.20772198,.0002089,87.9189,269.5412,94.5649,265.5723,0,U,49287,999,23354,-.2255E-4,.4E-7,0
ONEWEB-0362,2021-090K,2026-07-11T19:37:28.390080,13.19725927,.000227,87.9184,300.0730,101.9773,258.1614,0,U,49288,999,23016,-.33916E-4,-.1E-7,0
ONEWEB-0363,2021-090L,2026-07-11T17:01:15.281760,13.20771839,.0001834,87.9190,269.5533,93.9428,266.1915,0,U,49289,999,23354,.867E-4,.48E-6,0
ONEWEB-0364,2021-090M,2026-07-11T17:56:59.631360,13.20769360,.0002113,87.9187,269.5532,98.5354,261.6019,0,U,49290,999,23468,-.24305E-3,-.86E-6,0
ONEWEB-0365,2021-090N,2026-07-11T18:01:56.537184,13.19725822,.000206,87.9193,300.0765,101.4715,258.6649,0,U,49291,999,22966,-.20876E-3,-.71E-6,0
ONEWEB-0366,2021-090P,2026-07-11T17:13:09.424416,13.14501588,.0002063,87.8972,284.8192,98.0341,262.1022,0,U,49292,999,23078,.27373E-3,.114E-5,0
ONEWEB-0367,2021-090Q,2026-07-11T17:00:02.348064,13.20772771,.0002234,87.9189,269.5550,102.3335,257.8048,0,U,49293,999,23306,.46508E-4,.32E-6,0
ONEWEB-0368,2021-090R,2026-07-11T18:11:33.963936,13.20771299,.0001531,87.9176,269.5527,113.6396,246.4898,0,U,49294,999,23422,-.96167E-4,-.26E-6,0
